ORBCOMM-X               
1 21576U 91050C   24309.45293905  .00002311  00000+0  70450-3 0  9996
2 21576  98.3737  14.3342 0004436 134.2458 225.9097 14.42884803749704
ORBCOMM FM01            
1 23545U 95017A   24309.30297549  .00030419  00000+0  35840-2 0  9996
2 23545  69.9656 272.8492 0007963 298.6157  61.4193 14.84636654579416
ORBCOMM FM02            
1 23546U 95017B   24309.36823967  .00033735  00000+0  39845-2 0  9995
2 23546  69.9672 292.3583 0010115 298.6190  61.3944 14.84490446578715
ORBCOMM FM08            
1 25112U 97084A   24309.43631550  .00008511  00000+0  24955-2 0  9995
2 25112  45.0153   5.5655 0007623 210.6740 149.3666 14.44165975408862
ORBCOMM FM10            
1 25113U 97084B   24309.52630326  .00007057  00000+0  20835-2 0  9993
2 25113  45.0162   7.1638 0004520 190.1614 169.9146 14.44021070584028
ORBCOMM FM11            
1 25114U 97084C   24309.49439360  .00006872  00000+0  20382-2 0  9996
2 25114  45.0148   7.5699 0005351 186.6060 173.4721 14.43825163408985
ORBCOMM FM12            
1 25115U 97084D   24309.52787851  .00007192  00000+0  21319-2 0  9999
2 25115  45.0153   7.1662 0004482 191.5921 168.4827 14.43811772408783
ORBCOMM FM09            
1 25116U 97084E   24309.47528909  .00008680  00000+0  25667-2 0  9994
2 25116  45.0161   8.1683 0004893 169.7645 190.3306 14.43750838408986
