<?xml version="1.0" encoding="UTF-8"?>
<ndm xmlns:xsi="http://www.w3.org/2001/XMLSchema-instance" xsi:noNamespaceSchemaLocation="https://sanaregistry.org/r/ndmxml_unqualified/ndmxml-2.0.0-master-2.0.xsd">
<omm id="CCSDS_OMM_VERS" version="2.0">
<header><CREATION_DATE/><ORIGINATOR/></header><body><segment><metadata><OBJECT_NAME>ORBCOMM-X</OBJECT_NAME><OBJECT_ID>1991-050C</OBJECT_ID><CENTER_NAME>EARTH</CENTER_NAME><REF_FRAME>TEME</REF_FRAME><TIME_SYSTEM>UTC</TIME_SYSTEM><MEAN_ELEMENT_THEORY>SGP4</MEAN_ELEMENT_THEORY></metadata><data><meanElements><EPOCH>2024-11-04T10:52:13.933920</EPOCH><MEAN_MOTION>14.42884803</MEAN_MOTION><ECCENTRICITY>.0004436</ECCENTRICITY><INCLINATION>98.3737</INCLINATION><RA_OF_ASC_NODE>14.3342</RA_OF_ASC_NODE><ARG_OF_PERICENTER>134.2458</ARG_OF_PERICENTER><MEAN_ANOMALY>225.9097</MEAN_ANOMALY></meanElements><tleParameters><EPHEMERIS_TYPE>0</EPHEMERIS_TYPE><CLASSIFICATION_TYPE>U</CLASSIFICATION_TYPE><NORAD_CAT_ID>21576</NORAD_CAT_ID><ELEMENT_SET_NO>999</ELEMENT_SET_NO><REV_AT_EPOCH>74970</REV_AT_EPOCH><BSTAR>.7045E-3</BSTAR><MEAN_MOTION_DOT>.2311E-4</MEAN_MOTION_DOT><MEAN_MOTION_DDOT>0</MEAN_MOTION_DDOT></tleParameters></data></segment></body></omm>
<omm id="CCSDS_OMM_VERS" version="2.0">
<header><CREATION_DATE/><ORIGINATOR/></header><body><segment><metadata><OBJECT_NAME>ORBCOMM FM01</OBJECT_NAME><OBJECT_ID>1995-017A</OBJECT_ID><CENTER_NAME>EARTH</CENTER_NAME><REF_FRAME>TEME</REF_FRAME><TIME_SYSTEM>UTC</TIME_SYSTEM><MEAN_ELEMENT_THEORY>SGP4</MEAN_ELEMENT_THEORY></metadata><data><meanElements><EPOCH>2024-11-04T07:16:17.082336</EPOCH><MEAN_MOTION>14.84636654</MEAN_MOTION><ECCENTRICITY>.0007963</ECCENTRICITY><INCLINATION>69.9656</INCLINATION><RA_OF_ASC_NODE>272.8492</RA_OF_ASC_NODE><ARG_OF_PERICENTER>298.6157</ARG_OF_PERICENTER><MEAN_ANOMALY>61.4193</MEAN_ANOMALY></meanElements><tleParameters><EPHEMERIS_TYPE>0</EPHEMERIS_TYPE><CLASSIFICATION_TYPE>U</CLASSIFICATION_TYPE><NORAD_CAT_ID>23545</NORAD_CAT_ID><ELEMENT_SET_NO>999</ELEMENT_SET_NO><REV_AT_EPOCH>57941</REV_AT_EPOCH><BSTAR>.3584E-2</BSTAR><MEAN_MOTION_DOT>.30419E-3</MEAN_MOTION_DOT><MEAN_MOTION_DDOT>0</MEAN_MOTION_DDOT></tleParameters></data></segment></body></omm>
<omm id="CCSDS_OMM_VERS" version="2.0">
<header><CREATION_DATE/><ORIGINATOR/></header><body><segment><metadata><OBJECT_NAME>ORBCOMM FM02</OBJECT_NAME><OBJECT_ID>1995-017B</OBJECT_ID><CENTER_NAME>EARTH</CENTER_NAME><REF_FRAME>TEME</REF_FRAME><TIME_SYSTEM>UTC</TIME_SYSTEM><MEAN_ELEMENT_THEORY>SGP4</MEAN_ELEMENT_THEORY></metadata><data><meanElements><EPOCH>2024-11-04T08:50:15.907488</EPOCH><MEAN_MOTION>14.84490446</MEAN_MOTION><ECCENTRICITY>.0010115</ECCENTRICITY><INCLINATION>69.9672</INCLINATION><RA_OF_ASC_NODE>292.3583</RA_OF_ASC_NODE><ARG_OF_PERICENTER>298.6190</ARG_OF_PERICENTER><MEAN_ANOMALY>61.3944</MEAN_ANOMALY></meanElements><tleParameters><EPHEMERIS_TYPE>0</EPHEMERIS_TYPE><CLASSIFICATION_TYPE>U</CLASSIFICATION_TYPE><NORAD_CAT_ID>23546</NORAD_CAT_ID><ELEMENT_SET_NO>999</ELEMENT_SET_NO><REV_AT_EPOCH>57871</REV_AT_EPOCH><BSTAR>.39845E-2</BSTAR><MEAN_MOTION_DOT>.33735E-3</MEAN_MOTION_DOT><MEAN_MOTION_DDOT>0</MEAN_MOTION_DDOT></tleParameters></data></segment></body></omm>
<omm id="CCSDS_OMM_VERS" version="2.0">
<header><CREATION_DATE/><ORIGINATOR/></header><body><segment><metadata><OBJECT_NAME>ORBCOMM FM08</OBJECT_NAME><OBJECT_ID>1997-084A</OBJECT_ID><CENTER_NAME>EARTH</CENTER_NAME><REF_FRAME>TEME</REF_FRAME><TIME_SYSTEM>UTC</TIME_SYSTEM><MEAN_ELEMENT_THEORY>SGP4</MEAN_ELEMENT_THEORY></metadata><data><meanElements><EPOCH>2024-11-04T10:28:17.659200</EPOCH><MEAN_MOTION>14.44165975</MEAN_MOTION><ECCENTRICITY>.0007623</ECCENTRICITY><INCLINATION>45.0153</INCLINATION><RA_OF_ASC_NODE>5.5655</RA_OF_ASC_NODE><ARG_OF_PERICENTER>210.6740</ARG_OF_PERICENTER><MEAN_ANOMALY>149.3666</MEAN_ANOMALY></meanElements><tleParameters><EPHEMERIS_TYPE>0</EPHEMERIS_TYPE><CLASSIFICATION_TYPE>U</CLASSIFICATION_TYPE><NORAD_CAT_ID>25112</NORAD_CAT_ID><ELEMENT_SET_NO>999</ELEMENT_SET_NO><REV_AT_EPOCH>40886</REV_AT_EPOCH><BSTAR>.24955E-2</BSTAR><MEAN_MOTION_DOT>.8511E-4</MEAN_MOTION_DOT><MEAN_MOTION_DDOT>0</MEAN_MOTION_DDOT></tleParameters></data></segment></body></omm>
<omm id="CCSDS_OMM_VERS" version="2.0">
<header><CREATION_DATE/><ORIGINATOR/></header><body><segment><metadata><OBJECT_NAME>ORBCOMM FM10</OBJECT_NAME><OBJECT_ID>1997-084B</OBJECT_ID><CENTER_NAME>EARTH</CENTER_NAME><REF_FRAME>TEME</REF_FRAME><TIME_SYSTEM>UTC</TIME_SYSTEM><MEAN_ELEMENT_THEORY>SGP4</MEAN_ELEMENT_THEORY></metadata><data><meanElements><EPOCH>2024-11-04T12:37:52.601664</EPOCH><MEAN_MOTION>14.44021070</MEAN_MOTION><ECCENTRICITY>.000452</ECCENTRICITY><INCLINATION>45.0162</INCLINATION><RA_OF_ASC_NODE>7.1638</RA_OF_ASC_NODE><ARG_OF_PERICENTER>190.1614</ARG_OF_PERICENTER><MEAN_ANOMALY>169.9146</MEAN_ANOMALY></meanElements><tleParameters><EPHEMERIS_TYPE>0</EPHEMERIS_TYPE><CLASSIFICATION_TYPE>U</CLASSIFICATION_TYPE><NORAD_CAT_ID>25113</NORAD_CAT_ID><ELEMENT_SET_NO>999</ELEMENT_SET_NO><REV_AT_EPOCH>58402</REV_AT_EPOCH><BSTAR>.20835E-2</BSTAR><MEAN_MOTION_DOT>.7057E-4</MEAN_MOTION_DOT><MEAN_MOTION_DDOT>0</MEAN_MOTION_DDOT></tleParameters></data></segment></body></omm>
<omm id="CCSDS_OMM_VERS" version="2.0">
<header><CREATION_DATE/><ORIGINATOR/></header><body><segment><metadata><OBJECT_NAME>ORBCOMM FM11</OBJECT_NAME><OBJECT_ID>1997-084C</OBJECT_ID><CENTER_NAME>EARTH</CENTER_NAME><REF_FRAME>TEME</REF_FRAME><TIME_SYSTEM>UTC</TIME_SYSTEM><MEAN_ELEMENT_THEORY>SGP4</MEAN_ELEMENT_THEORY></metadata><data><meanElements><EPOCH>2024-11-04T11:51:55.607040</EPOCH><MEAN_MOTION>14.43825163</MEAN_MOTION><ECCENTRICITY>.0005351</ECCENTRICITY><INCLINATION>45.0148</INCLINATION><RA_OF_ASC_NODE>7.5699</RA_OF_ASC_NODE><ARG_OF_PERICENTER>186.6060</ARG_OF_PERICENTER><MEAN_ANOMALY>173.4721</MEAN_ANOMALY></meanElements><tleParameters><EPHEMERIS_TYPE>0</EPHEMERIS_TYPE><CLASSIFICATION_TYPE>U</CLASSIFICATION_TYPE><NORAD_CAT_ID>25114</NORAD_CAT_ID><ELEMENT_SET_NO>999</ELEMENT_SET_NO><REV_AT_EPOCH>40898</REV_AT_EPOCH><BSTAR>.20382E-2</BSTAR><MEAN_MOTION_DOT>.6872E-4</MEAN_MOTION_DOT><MEAN_MOTION_DDOT>0</MEAN_MOTION_DDOT></tleParameters></data></segment></body></omm>
<omm id="CCSDS_OMM_VERS" version="2.0">
<header><CREATION_DATE/><ORIGINATOR/></header><body><segment><metadata><OBJECT_NAME>ORBCOMM FM12</OBJECT_NAME><OBJECT_ID>1997-084D</OBJECT_ID><CENTER_NAME>EARTH</CENTER_NAME><REF_FRAME>TEME</REF_FRAME><TIME_SYSTEM>UTC</TIME_SYSTEM><MEAN_ELEMENT_THEORY>SGP4</MEAN_ELEMENT_THEORY></metadata><data><meanElements><EPOCH>2024-11-04T12:40:08.703264</EPOCH><MEAN_MOTION>14.43811772</MEAN_MOTION><ECCENTRICITY>.0004482</ECCENTRICITY><INCLINATION>45.0153</INCLINATION><RA_OF_ASC_NODE>7.1662</RA_OF_ASC_NODE><ARG_OF_PERICENTER>191.5921</ARG_OF_PERICENTER><MEAN_ANOMALY>168.4827</MEAN_ANOMALY></meanElements><tleParameters><EPHEMERIS_TYPE>0</EPHEMERIS_TYPE><CLASSIFICATION_TYPE>U</CLASSIFICATION_TYPE><NORAD_CAT_ID>25115</NORAD_CAT_ID><ELEMENT_SET_NO>999</ELEMENT_SET_NO><REV_AT_EPOCH>40878</REV_AT_EPOCH><BSTAR>.21319E-2</BSTAR><MEAN_MOTION_DOT>.7192E-4</MEAN_MOTION_DOT><MEAN_MOTION_DDOT>0</MEAN_MOTION_DDOT></tleParameters></data></segment></body></omm>
<omm id="CCSDS_OMM_VERS" version="2.0">
<header><CREATION_DATE/><ORIGINATOR/></header><body><segment><metadata><OBJECT_NAME>ORBCOMM FM09</OBJECT_NAME><OBJECT_ID>1997-084E</OBJECT_ID><CENTER_NAME>EARTH</CENTER_NAME><REF_FRAME>TEME</REF_FRAME><TIME_SYSTEM>UTC</TIME_SYSTEM><MEAN_ELEMENT_THEORY>SGP4</MEAN_ELEMENT_THEORY></metadata><data><meanElements><EPOCH>2024-11-04T11:24:24.977376</EPOCH><MEAN_MOTION>14.43750838</MEAN_MOTION><ECCENTRICITY>.0004893</ECCENTRICITY><INCLINATION>45.0161</INCLINATION><RA_OF_ASC_NODE>8.1683</RA_OF_ASC_NODE><ARG_OF_PERICENTER>169.7645</ARG_OF_PERICENTER><MEAN_ANOMALY>190.3306</MEAN_ANOMALY></meanElements><tleParameters><EPHEMERIS_TYPE>0</EPHEMERIS_TYPE><CLASSIFICATION_TYPE>U</CLASSIFICATION_TYPE><NORAD_CAT_ID>25116</NORAD_CAT_ID><ELEMENT_SET_NO>999</ELEMENT_SET_NO><REV_AT_EPOCH>40898</REV_AT_EPOCH><BSTAR>.25667E-2</BSTAR><MEAN_MOTION_DOT>.868E-4</MEAN_MOTION_DOT><MEAN_MOTION_DDOT>0</MEAN_MOTION_DDOT></tleParameters></data></segment></body></omm>

</ndm>
